ERS-2                   
1 23560U 95021A   24051.67374602  .05040657  31571-5  13083-2 0  9996
2 23560  98.4926  70.4918 0005885 276.0555 180.7057 16.28644974547927
